NORAD_CAT_ID,OBJECT_NAME,OBJECT_TYPE,EPOCH,MEAN_MOTION,ECCENTRICITY,INCLINATION,RA_OF_ASC_NODE,ARG_OF_PERICENTER,MEAN_ANOMALY,BSTAR,MEAN_MOTION_DOT,MEAN_MOTION_DDOT,TLE_LINE0,TLE_LINE1,TLE_LINE2,SEMIMAJOR_AXIS,PERIOD,APOGEE,PERIGEE,DECAYED
53837.0,STARLINK-4776,PAYLOAD,2023-02-11 00:58:32,15.08865619,9.37e-05,53.2163,303.599,102.9912,257.1184,0.0019465,0.00030848,0.0,0 STARLINK-4776,1 53837U 22114V   23042.04065215  .00030848  00000-0  19465-2 0  9990,2 53837  53.2163 303.5990 0000937 102.9912 257.1184 15.08865619 23350,6917.802,95.436,540.315,539.019,0.0
53837.0,STARLINK-4776,PAYLOAD,2023-02-11 23:13:56,15.08854736,0.000118,53.2168,299.4335,123.883,236.2274,0.0018092,0.00028634,0.0,0 STARLINK-4776,1 53837U 22114V   23042.96801709  .00028634  00000-0  18092-2 0  9992,2 53837  53.2168 299.4335 0001180 123.8830 236.2274 15.08854736 22954,6917.835,95.437,540.517,538.884,0.0
53837.0,STARLINK-4776,PAYLOAD,2023-02-12 02:24:42,15.08859715,0.0001083,53.2161,298.8384,119.4757,240.6344,0.0017037,0.00026945,0.0,0 STARLINK-4776,1 53837U 22114V   23043.10049551  .00026945  00000-0  17037-2 0  9999,2 53837  53.2161 298.8384 0001083 119.4757 240.6344 15.08859715 23517,6917.82,95.436,540.434,538.936,0.0
53837.0,STARLINK-4776,PAYLOAD,2023-02-12 23:04:44,15.08837624,0.0001725,53.2166,294.9739,87.4553,272.6637,0.0013947,0.00021977,0.0,0 STARLINK-4776,1 53837U 22114V   23043.96163062  .00021977  00000-0  13947-2 0  9993,2 53837  53.2166 294.9739 0001725  87.4553 272.6637 15.08837624 23104,6917.888,95.438,540.946,538.559,0.0
53837.0,STARLINK-4776,PAYLOAD,2023-02-13 10:12:27,15.08833935,0.0001217,53.2142,292.8927,82.697,277.4161,0.00075671,0.00011774,0.0,0 STARLINK-4776,1 53837U 22114V   23044.42531458  .00011774  00000-0  75671-3 0  9990,2 53837  53.2142 292.8927 0001217  82.6970 277.4161 15.08833935 23173,6917.899,95.438,540.606,538.922,0.0
53837.0,STARLINK-4776,PAYLOAD,2023-02-14 02:06:18,15.08860506,0.0001154,53.2167,289.9178,72.0119,288.0999,0.0010086,0.00015809,0.0,0 STARLINK-4776,1 53837U 22114V   23045.08770853  .00015809  00000-0  10086-2 0  9998,2 53837  53.2167 289.9178 0001154  72.0119 288.0999 15.08860506 23275,6917.818,95.436,540.481,538.884,0.0
53837.0,STARLINK-4776,PAYLOAD,2023-02-14 22:46:18,15.08852843,0.0001706,53.217,286.0514,75.3031,284.815,0.00052687,8.11e-05,0.0,0 STARLINK-4776,1 53837U 22114V   23045.94882655  .00008110  00000-0  52687-3 0  9998,2 53837  53.2170 286.0514 0001706  75.3031 284.8150 15.08852843 23406,6917.841,95.437,540.886,538.526,0.0
53837.0,STARLINK-4776,PAYLOAD,2023-02-15 08:18:37,15.08846745,0.0001043,53.2154,284.2691,73.4369,286.6737,0.00015869,2.239e-05,0.0,0 STARLINK-4776,1 53837U 22114V   23046.34626355  .00002239  00000-0  15869-3 0  9993,2 53837  53.2154 284.2691 0001043  73.4369 286.6737 15.08846745 23462,6917.86,95.437,540.446,539.003,0.0
53837.0,STARLINK-4776,PAYLOAD,2023-02-15 21:01:41,15.08852492,0.0001449,53.2175,281.8894,102.3336,257.7819,0.00013966,1.936e-05,0.0,0 STARLINK-4776,1 53837U 22114V   23046.87617900  .00001936  00000-0  13966-3 0  9996,2 53837  53.2175 281.8894 0001449 102.3336 257.7819 15.08852492 24084,6917.842,95.437,540.71,538.705,0.0
53837.0,STARLINK-4776,PAYLOAD,2023-02-16 14:30:57,15.08828278,0.0001096,53.2156,278.6186,73.1482,286.9631,-0.00024636,-4.205e-05,0.0,0 STARLINK-4776,1 53837U 22114V   23047.60482713 -.00004205  00000-0 -24636-3 0  9990,2 53837  53.2156 278.6186 0001096  73.1482 286.9631 15.08828278 24199,6917.916,95.438,540.539,539.023,0.0
53837.0,STARLINK-4776,PAYLOAD,2023-02-16 16:06:20,15.08828357,0.0001103,53.2159,278.3217,76.5436,283.5679,-0.00017812,-3.121e-05,0.0,0 STARLINK-4776,1 53837U 22114V   23047.67106759 -.00003121  00000-0 -17812-3 0  9994,2 53837  53.2159 278.3217 0001103  76.5436 283.5679 15.08828357 23663,6917.916,95.438,540.544,539.018,0.0
53837.0,STARLINK-4776,PAYLOAD,2023-02-17 00:03:15,15.08840063,0.0001004,53.2157,276.8338,76.2531,283.8573,6.085e-05,6.81e-06,0.0,0 STARLINK-4776,1 53837U 22114V   23048.00226382  .00000681  00000-0  60850-4 0  9994,2 53837  53.2157 276.8338 0001004  76.2531 283.8573 15.08840063 23711,6917.88,95.438,540.44,539.051,0.0
53837.0,STARLINK-4776,PAYLOAD,2023-02-17 14:21:44,15.08826791,0.0001363,53.2153,274.1592,78.1012,282.0133,-9.3777e-05,-1.779e-05,0.0,0 STARLINK-4776,1 53837U 22114V   23048.59843391 -.00001779  00000-0 -93777-4 0  9998,2 53837  53.2153 274.1592 0001363  78.1012 282.0133 15.08826791 23808,6917.921,95.438,540.729,538.843,0.0
53837.0,STARLINK-4776,PAYLOAD,2023-02-17 20:43:17,15.08830631,0.000129,53.217,272.9699,87.7125,272.4014,-0.00012198,-2.228e-05,0.0,0 STARLINK-4776,1 53837U 22114V   23048.86339467 -.00002228  00000-0 -12198-3 0  9999,2 53837  53.2170 272.9699 0001290  87.7125 272.4014 15.08830631 24384,6917.909,95.438,540.666,538.882,0.0
53837.0,STARLINK-4776,PAYLOAD,2023-02-18 07:50:59,15.08839808,0.0001308,53.2169,270.8883,80.47,279.6439,1.5229e-05,-4.6e-07,0.0,0 STARLINK-4776,1 53837U 22114V   23049.32707298 -.00000046  00000-0  15229-4 0  9996,2 53837  53.2169 270.8883 0001308  80.4700 279.6439 15.08839808 23916,6917.881,95.438,540.651,538.841,0.0
53837.0,STARLINK-4776,PAYLOAD,2023-02-18 14:12:31,15.08838748,0.0001297,53.2169,269.6988,77.5915,282.5223,0.00032764,4.93e-05,0.0,0 STARLINK-4776,1 53837U 22114V   23049.59203569  .00004930  00000-0  32764-3 0  9994,2 53837  53.2169 269.6988 0001297  77.5915 282.5223 15.08838748 24490,6917.884,95.438,540.646,538.852,0.0
53837.0,STARLINK-4776,PAYLOAD,2023-02-19 14:03:18,15.08846959,0.0001362,53.215,265.2386,80.3659,279.7487,0.00026134,3.875e-05,0.0,0 STARLINK-4776,1 53837U 22114V   23050.58563250  .00003875  00000-0  26134-3 0  9992,2 53837  53.2150 265.2386 0001362  80.3659 279.7487 15.08846959 24105,6917.859,95.437,540.666,538.782,0.0
53837.0,STARLINK-4776,PAYLOAD,2023-02-20 13:54:05,15.08847692,0.0001243,53.2148,260.7765,83.6119,276.5015,9.8629e-05,1.282e-05,0.0,0 STARLINK-4776,1 53837U 22114V   23051.57922915  .00001282  00000-0  98629-4 0  9998,2 53837  53.2148 260.7765 0001243  83.6119 276.5015 15.08847692 24790,6917.857,95.437,540.582,538.862,0.0
53837.0,STARLINK-4776,PAYLOAD,2023-02-20 23:26:23,15.08853141,0.0001242,53.2147,258.9921,85.8678,274.2456,0.00015276,2.145e-05,0.0,0 STARLINK-4776,1 53837U 22114V   23051.97666429  .00002145  00000-0  15276-3 0  9992,2 53837  53.2147 258.9921 0001242  85.8678 274.2456 15.08853141 24313,6917.84,95.437,540.564,538.846,0.0
53837.0,STARLINK-4776,PAYLOAD,2023-02-21 13:44:52,15.08840652,0.0001253,53.2147,256.3151,89.0064,271.1072,7.3964e-05,8.89e-06,0.0,0 STARLINK-4776,1 53837U 22114V   23052.57282961  .00000889  00000-0  73964-4 0  9996,2 53837  53.2147 256.3151 0001253  89.0064 271.1072 15.08840652 24400,6917.878,95.438,540.61,538.877,0.0
53837.0,STARLINK-4776,PAYLOAD,2023-02-21 20:06:24,15.08844561,0.0001263,53.2145,255.1255,88.3418,271.7719,7.6894e-05,9.36e-06,0.0,0 STARLINK-4776,1 53837U 22114V   23052.83778673  .00000936  00000-0  76894-4 0  9993,2 53837  53.2145 255.1255 0001263  88.3418 271.7719 15.08844561 24986,6917.866,95.437,540.605,538.858,0.0
53837.0,STARLINK-4776,PAYLOAD,2023-02-22 13:35:39,15.08835746,0.0001237,53.2152,251.854,93.4857,266.6277,1.7399e-05,-1.1e-07,0.0,0 STARLINK-4776,1 53837U 22114V   23053.56643303 -.00000011  00000-0  17399-4 0  9995,2 53837  53.2152 251.8540 0001237  93.4857 266.6277 15.08835746 25099,6917.893,95.438,540.614,538.903,0.0
53837.0,STARLINK-4776,PAYLOAD,2023-02-22 19:57:12,15.08836958,0.0001227,53.2153,250.6654,88.2854,271.8279,2.7425e-05,1.49e-06,0.0,0 STARLINK-4776,1 53837U 22114V   23053.83139260  .00000149  00000-0  27425-4 0  9999,2 53837  53.2153 250.6654 0001227  88.2854 271.8279 15.08836958 24591,6917.89,95.438,540.604,538.906,0.0
53837.0,STARLINK-4776,PAYLOAD,2023-02-22 21:32:35,15.0883806,0.0001214,53.2154,250.3676,88.543,271.5701,2.8928e-05,1.73e-06,0.0,0 STARLINK-4776,1 53837U 22114V   23053.89763184  .00000173  00000-0  28928-4 0  9999,2 53837  53.2154 250.3676 0001214  88.5430 271.5701 15.08838060 25147,6917.886,95.438,540.591,538.911,0.0
53837.0,STARLINK-4776,PAYLOAD,2023-02-23 13:26:26,15.08841181,0.0001127,53.2157,247.3944,83.0006,277.1114,7.9462e-05,9.77e-06,0.0,0 STARLINK-4776,1 53837U 22114V   23054.56002940  .00000977  00000-0  79462-4 0  9991,2 53837  53.2157 247.3944 0001127  83.0006 277.1114 15.08841181 25245,6917.877,95.437,540.521,538.962,0.0
53837.0,STARLINK-4776,PAYLOAD,2023-02-23 21:23:21,15.08848191,0.0001196,53.215,245.9075,83.7024,276.4104,0.00018356,2.635e-05,0.0,0 STARLINK-4776,1 53837U 22114V   23054.89122557  .00002635  00000-0  18356-3 0  9991,2 53837  53.2150 245.9075 0001196  83.7024 276.4104 15.08848191 25294,6917.855,95.437,540.548,538.893,0.0
53837.0,STARLINK-4776,PAYLOAD,2023-02-23 22:58:44,15.08849612,0.0001212,53.2149,245.6099,84.132,275.981,0.0002058,2.99e-05,0.0,0 STARLINK-4776,1 53837U 22114V   23054.95746478  .00002990  00000-0  20580-3 0  9998,2 53837  53.2149 245.6099 0001212  84.1320 275.9810 15.08849612 24766,6917.851,95.437,540.554,538.878,0.0
53837.0,STARLINK-4776,PAYLOAD,2023-02-24 05:20:17,15.08839732,0.0001168,53.2147,244.4181,84.7163,275.3962,6.7682e-05,7.89e-06,0.0,0 STARLINK-4776,1 53837U 22114V   23055.22242865  .00000789  00000-0  67682-4 0  9999,2 53837  53.2147 244.4181 0001168  84.7163 275.3962 15.08839732 24803,6917.881,95.438,540.554,538.938,0.0
53837.0,STARLINK-4776,PAYLOAD,2023-02-24 13:17:13,15.08833937,0.0001267,53.2147,242.9334,94.3082,265.8055,2.2386e-05,6.8e-07,0.0,0 STARLINK-4776,1 53837U 22114V   23055.55363312  .00000068  00000-0  22386-4 0  9998,2 53837  53.2147 242.9334 0001267  94.3082 265.8055 15.08833937 25396,6917.899,95.438,540.64,538.887,0.0
53837.0,STARLINK-4776,PAYLOAD,2023-02-24 19:38:46,15.08838,0.000127,53.2147,241.744,95.5831,264.5306,7.448e-05,8.98e-06,0.0,0 STARLINK-4776,1 53837U 22114V   23055.81859180  .00000898  00000-0  74480-4 0  9993,2 53837  53.2147 241.7440 0001270  95.5831 264.5306 15.08838000 25436,6917.887,95.438,540.63,538.873,0.0
